BEIDOU-3 M1 (C19)       
1 43001U 17069A   26092.95919512 -.00000043  00000+0  00000+0 0  9997
2 43001  56.6289  65.5602 0012522 314.0342  45.8356  1.86231220 57209
BEIDOU-3 M2 (C20)       
1 43002U 17069B   26092.36080163 -.00000041  00000+0  00000+0 0  9992
2 43002  56.6272  65.6158 0010135 333.3240  26.5981  1.86230560 57181
BEIDOU-3 M7 (C27)       
1 43107U 18003A   26092.63934671 -.00000065  00000+0  00000+0 0  9995
2 43107  54.3956 304.9489 0005115  76.5007 283.5840  1.86232359 55945
BEIDOU-3 M8 (C28)       
1 43108U 18003B   26092.58514063 -.00000065  00000+0  00000+0 0  9999
2 43108  54.3877 304.9330 0002485 292.7810  67.2205  1.86230868 55950
BEIDOU-3 M4 (C22)       
1 43207U 18018A   26093.02746557 -.00000043  00000+0  00000+0 0  9996
2 43207  56.5879  65.6246 0007534 355.4518   4.5142  1.86231194 55345
BEIDOU-3 M3 (C21)       
1 43208U 18018B   26094.16781738 -.00000042  00000+0  00000+0 0  9992
2 43208  56.5883  65.5909 0010160 324.6023  35.3023  1.86231172 55362
BEIDOU-3 M9 (C29)       
1 43245U 18029A   26093.84830561 -.00000062  00000+0  00000+0 0  9990
2 43245  54.2613 302.5478 0001013  54.6970 305.3327  1.86228380 54512
BEIDOU-3 M10 (C30)      
1 43246U 18029B   26093.78304414 -.00000063  00000+0  00000+0 0  9998
2 43246  54.2588 302.5771 0005117  31.2975 328.7535  1.86229032 54497
BEIDOU-2 IGSO-7 (C16)   
1 43539U 18057A   26086.63100478 -.00000168  00000+0  00000+0 0  9990
2 43539  55.1838 163.7722 0101772 237.2605 124.1194  1.00275701 28316
BEIDOU-3 M5 (C23)       
1 43581U 18062A   26092.39635532  .00000008  00000+0  00000+0 0  9999
2 43581  54.0850 184.8810 0003510 295.8623  64.1328  1.86224644 52221
BEIDOU-3 M6 (C24)       
1 43582U 18062B   26093.33335537  .00000014  00000+0  00000+0 0  9994
2 43582  54.0846 184.8383 0005216  31.2890 328.7793  1.86227743 52245
BEIDOU-3 M12 (C26)      
1 43602U 18067A   26089.51302426 -.00000026  00000+0  00000+0 0  9992
2 43602  54.1801 183.7084 0008139  37.0616 323.0089  1.86227710 51657
BEIDOU-3 M11 (C25)      
1 43603U 18067B   26093.40660892  .00000015  00000+0  00000+0 0  9997
2 43603  54.1769 183.5400 0004642  26.6069 333.4575  1.86227234 51759
BEIDOU-3 M13 (C32)      
1 43622U 18072A   26092.28812523 -.00000042  00000+0  00000+0 0  9990
2 43622  56.5605  65.1621 0009163 313.4238  46.4741  1.86230927 51246
BEIDOU-3 M14 (C33)      
1 43623U 18072B   26094.30138780 -.00000042  00000+0  00000+0 0  9992
2 43623  56.5642  65.0898 0006905 335.0369  24.9014  1.86231122 51274
BEIDOU-3 M16 (C35)      
1 43647U 18078A   26093.38397449 -.00000063  00000+0  00000+0 0  9993
2 43647  54.1581 302.6080 0008390  35.6309 324.4467  1.86232420 50761
BEIDOU-3 M15 (C34)      
1 43648U 18078B   26094.05022924 -.00000062  00000+0  00000+0 0  9991
2 43648  54.1526 302.5850 0005403  45.0328 315.0307  1.86232221 50794
